CELESTIS
1 25160U 98007D   16308.96608480 -.00000071  00000-0  25889-4 0  9992
2 25160 107.9514 101.3290 0061914  24.7017  84.3001 14.21445226971320